{
    "links": {
        "self": "http://www.neowsapp.com/rest/v1/neo/3758998?api_key=iIulBulltgU6a56xZRHN4H3l9WmuAYTsLGpBGhQ2"
    },
    "id": "3758998",
    "neo_reference_id": "3758998",
    "name": "(2016 RJ17)",
    "designation": "2016 RJ17",
    "nasa_jpl_url": "http://ssd.jpl.nasa.gov/sbdb.cgi?sstr=3758998",
    "absolute_magnitude_h": 23.5,
    "estimated_diameter": {
        "kilometers": {
            "estimated_diameter_min": 0.0530340723,
            "estimated_diameter_max": 0.1185877909
        },
        "meters": {
            "estimated_diameter_min": 53.0340723319,
            "estimated_diameter_max": 118.5877908577
        },
        "miles": {
            "estimated_diameter_min": 0.0329538346,
            "estimated_diameter_max": 0.0736870142
        },
        "feet": {
            "estimated_diameter_min": 173.9963058693,
            "estimated_diameter_max": 389.0675677576
        }
    },
    "is_potentially_hazardous_asteroid": false,
    "close_approach_data": [
        {
            "close_approach_date": "2003-09-08",
            "close_approach_date_full": "2003-Sep-08 10:56",
            "epoch_date_close_approach": 1063018560000,
            "relative_velocity": {
                "kilometers_per_second": "17.2272785247",
                "kilometers_per_hour": "62018.2026890453",
                "miles_per_hour": "38535.6993319793"
            },
            "miss_distance": {
                "astronomical": "0.2491644871",
                "lunar": "96.9249854819",
                "kilometers": "37274476.549802477",
                "miles": "23161285.7249571026"
            },
            "orbiting_body": "Earth"
        },
        {
            "close_approach_date": "2016-09-13",
            "close_approach_date_full": "2016-Sep-13 14:03",
            "epoch_date_close_approach": 1473775380000,
            "relative_velocity": {
                "kilometers_per_second": "15.2665080116",
                "kilometers_per_hour": "54959.4288419047",
                "miles_per_hour": "34149.651771238"
            },
            "miss_distance": {
                "astronomical": "0.1418059816",
                "lunar": "55.1625268424",
                "kilometers": "21213872.800619192",
                "miles": "13181689.3152491696"
            },
            "orbiting_body": "Earth"
        },
        {
            "close_approach_date": "2029-09-17",
            "close_approach_date_full": "2029-Sep-17 09:58",
            "epoch_date_close_approach": 1884333480000,
            "relative_velocity": {
                "kilometers_per_second": "16.0683289164",
                "kilometers_per_hour": "57845.9840990083",
                "miles_per_hour": "35943.2449530755"
            },
            "miss_distance": {
                "astronomical": "0.3685734625",
                "lunar": "143.3750769125",
                "kilometers": "55137804.928524875",
                "miles": "34261043.276898275"
            },
            "orbiting_body": "Earth"
        }
    ],
    "orbital_data": {
        "orbit_id": "7",
        "orbit_determination_date": "2017-04-06 08:24:09",
        "first_observation_date": "2016-09-05",
        "last_observation_date": "2016-10-01",
        "data_arc_in_days": 26,
        "observations_used": 41,
        "orbit_uncertainty": "7",
        "minimum_orbit_intersection": ".128342",
        "jupiter_tisserand_invariant": "4.345",
        "epoch_osculation": "2459000.5",
        "eccentricity": ".2684406207890028",
        "semi_major_axis": "1.514423879797639",
        "inclination": "28.95037675949753",
        "ascending_node_longitude": "167.7345753873361",
        "orbital_period": "680.721708210254",
        "perihelion_distance": "1.107890993367071",
        "perihelion_argument": "208.4419804150832",
        "aphelion_distance": "1.920956766228208",
        "perihelion_time": "2459036.671334067999",
        "mean_anomaly": "340.870772729261",
        "mean_motion": ".5288504768659545",
        "equinox": "J2000",
        "orbit_class": {
            "orbit_class_type": "AMO",
            "orbit_class_description": "Near-Earth asteroid orbits similar to that of 1221 Amor",
            "orbit_class_range": "1.017 AU < q (perihelion) < 1.3 AU"
        }
    },
    "is_sentry_object": false
}